STARLINK-11365 [DTC]    
1 62886U 25024H   25269.92267904  .00225008  00000+0  17061-2 0  9999
2 62886  43.0004  88.2895 0001669 268.3490  91.7187 15.70894103 37716
STARLINK-11436 [DTC]    
1 62887U 25024J   25269.23919541  .00458750  00000+0  33660-2 0  9990
2 62887  42.9993  92.6342 0001534 294.7496  65.3212 15.70973914 37600
STARLINK-11438 [DTC]    
1 62888U 25024K   25269.86000886  .00396672  00000+0  29351-2 0  9999
2 62888  43.0002  88.6813 0001815 309.6197  50.4510 15.70958458 37701
STARLINK-11391 [DTC]    
1 62889U 25024L   25269.55179605  .00311063  00000+0  23308-2 0  9999
2 62889  43.0003  90.6725 0001712 251.6436 108.4245 15.70914336 37656
STARLINK-11431 [DTC]    
1 62890U 25024M   25269.84860892  .00361204  00000+0  26867-2 0  9993
2 62890  42.9987  89.4836 0001821 309.6545  50.4161 15.70939611 37692
STARLINK-11435 [DTC]    
1 62891U 25024N   25269.52536525  .00443707  00000+0  32457-2 0  9993
2 62891  42.9997  91.3552 0002807 249.4499 110.6068 15.71092243 37647
STARLINK-32878          
1 62892U 25024P   25269.76067204  .00034413  00000+0  12538-2 0  9991
2 62892  42.9924 171.2804 0000560 100.3824 259.7091 15.27590401 37198
STARLINK-32892          
1 62893U 25024Q   25269.76451980  .00004148  00000+0  16020-3 0  9993
2 62893  42.9982 171.3039 0001637 286.4532  73.6139 15.27574584 37192
STARLINK-32909          
1 62894U 25024R   25269.77094782  .00052425  00000+0  18988-2 0  9993
2 62894  42.9983 171.3555 0001102 130.3534 229.7414 15.27618960 37190
STARLINK-32901          
1 62895U 25024S   25269.08881226  .00024949  00000+0  91375-3 0  9997
2 62895  43.0009 174.8256 0001506 292.6493  67.4199 15.27556135 37093
STARLINK-32890          
1 62896U 25024T   25269.12464154  .00037837  00000+0  13763-2 0  9994
2 62896  43.0001 174.2449 0001410 277.2135  82.8556 15.27608562 37102
STARLINK-32893          
1 62897U 25024U   25269.46313791  .00056489  00000+0  20458-2 0  9995
2 62897  43.0015 172.4841 0001727 266.5827  93.4827 15.27592322 37154
STARLINK-32902          
1 62898U 25024V   25269.45928674  .00038727  00000+0  14084-2 0  9990
2 62898  42.9989 172.4505 0002066 312.6166  47.4511 15.27604987 37156
STARLINK-32661          
1 62899U 25024W   25269.74651425  .00050209  00000+0  18196-2 0  9997
2 62899  42.9953 171.1662 0000349 241.6968 118.3849 15.27618579 37199
STARLINK-11552 [DTC]    
1 62907U 25027A   25269.66271717  .00341671  00000+0  25497-2 0  9991
2 62907  43.0005 256.4834 0001101  23.7058 336.3860 15.70919647 37398
STARLINK-11561 [DTC]    
1 62908U 25027B   25269.44540911  .00322613  00000+0  24150-2 0  9993
2 62908  43.0009 257.4186 0002123 270.0690  89.9935 15.70902414 37329
