[{"OBJECT_NAME":"STARLINK-11365 [DTC]","OBJECT_ID":"2025-024H","EPOCH":"2025-09-26T22:08:39.469056","MEAN_MOTION":15.70894103,"ECCENTRICITY":0.0001669,"INCLINATION":43.0004,"RA_OF_ASC_NODE":88.2895,"ARG_OF_PERICENTER":268.349,"MEAN_ANOMALY":91.7187,"EPHEMERIS_TYPE":0,"CLASSIFICATION_TYPE":"U","NORAD_CAT_ID":62886,"ELEMENT_SET_NO":999,"REV_AT_EPOCH":3771,"BSTAR":0.0017061033,"MEAN_MOTION_DOT":0.00225008,"MEAN_MOTION_DDOT":0},{"OBJECT_NAME":"STARLINK-11436 [DTC]","OBJECT_ID":"2025-024J","EPOCH":"2025-09-26T05:44:26.483424","MEAN_MOTION":15.70973914,"ECCENTRICITY":0.0001534,"INCLINATION":42.9993,"RA_OF_ASC_NODE":92.6342,"ARG_OF_PERICENTER":294.7496,"MEAN_ANOMALY":65.3212,"EPHEMERIS_TYPE":0,"CLASSIFICATION_TYPE":"U","NORAD_CAT_ID":62887,"ELEMENT_SET_NO":999,"REV_AT_EPOCH":3760,"BSTAR":0.003366049,"MEAN_MOTION_DOT":0.0045875,"MEAN_MOTION_DDOT":0},{"OBJECT_NAME":"STARLINK-11438 [DTC]","OBJECT_ID":"2025-024K","EPOCH":"2025-09-26T20:38:24.765504","MEAN_MOTION":15.70958458,"ECCENTRICITY":0.00018155,"INCLINATION":43.0002,"RA_OF_ASC_NODE":88.6813,"ARG_OF_PERICENTER":309.6197,"MEAN_ANOMALY":50.451,"EPHEMERIS_TYPE":0,"CLASSIFICATION_TYPE":"U","NORAD_CAT_ID":62888,"ELEMENT_SET_NO":999,"REV_AT_EPOCH":3770,"BSTAR":0.002935102,"MEAN_MOTION_DOT":0.00396672,"MEAN_MOTION_DDOT":0},{"OBJECT_NAME":"STARLINK-11391 [DTC]","OBJECT_ID":"2025-024L","EPOCH":"2025-09-26T13:14:35.178720","MEAN_MOTION":15.70914336,"ECCENTRICITY":0.00017129,"INCLINATION":43.0003,"RA_OF_ASC_NODE":90.6725,"ARG_OF_PERICENTER":251.6436,"MEAN_ANOMALY":108.4245,"EPHEMERIS_TYPE":0,"CLASSIFICATION_TYPE":"U","NORAD_CAT_ID":62889,"ELEMENT_SET_NO":999,"REV_AT_EPOCH":3765,"BSTAR":0.0023308127,"MEAN_MOTION_DOT":0.00311063,"MEAN_MOTION_DDOT":0},{"OBJECT_NAME":"STARLINK-11431 [DTC]","OBJECT_ID":"2025-024M","EPOCH":"2025-09-26T20:21:59.810688","MEAN_MOTION":15.70939611,"ECCENTRICITY":0.0001821,"INCLINATION":42.9987,"RA_OF_ASC_NODE":89.4836,"ARG_OF_PERICENTER":309.6545,"MEAN_ANOMALY":50.4161,"EPHEMERIS_TYPE":0,"CLASSIFICATION_TYPE":"U","NORAD_CAT_ID":62890,"ELEMENT_SET_NO":999,"REV_AT_EPOCH":3769,"BSTAR":0.0026866577,"MEAN_MOTION_DOT":0.00361204,"MEAN_MOTION_DDOT":0},{"OBJECT_NAME":"STARLINK-11435 [DTC]","OBJECT_ID":"2025-024N","EPOCH":"2025-09-26T12:36:31.557600","MEAN_MOTION":15.71092243,"ECCENTRICITY":0.00028078,"INCLINATION":42.9997,"RA_OF_ASC_NODE":91.3552,"ARG_OF_PERICENTER":249.4499,"MEAN_ANOMALY":110.6068,"EPHEMERIS_TYPE":0,"CLASSIFICATION_TYPE":"U","NORAD_CAT_ID":62891,"ELEMENT_SET_NO":999,"REV_AT_EPOCH":3764,"BSTAR":0.0032457339,"MEAN_MOTION_DOT":0.00443707,"MEAN_MOTION_DDOT":0},{"OBJECT_NAME":"STARLINK-32878","OBJECT_ID":"2025-024P","EPOCH":"2025-09-26T18:15:22.064256","MEAN_MOTION":15.27590401,"ECCENTRICITY":5.609e-5,"INCLINATION":42.9924,"RA_OF_ASC_NODE":171.2804,"ARG_OF_PERICENTER":100.3824,"MEAN_ANOMALY":259.7091,"EPHEMERIS_TYPE":0,"CLASSIFICATION_TYPE":"U","NORAD_CAT_ID":62892,"ELEMENT_SET_NO":999,"REV_AT_EPOCH":3719,"BSTAR":0.0012538369,"MEAN_MOTION_DOT":0.00034413,"MEAN_MOTION_DDOT":0},{"OBJECT_NAME":"STARLINK-32892","OBJECT_ID":"2025-024Q","EPOCH":"2025-09-26T18:20:54.510720","MEAN_MOTION":15.27574584,"ECCENTRICITY":0.00016372,"INCLINATION":42.9982,"RA_OF_ASC_NODE":171.3039,"ARG_OF_PERICENTER":286.4532,"MEAN_ANOMALY":73.6139,"EPHEMERIS_TYPE":0,"CLASSIFICATION_TYPE":"U","NORAD_CAT_ID":62893,"ELEMENT_SET_NO":999,"REV_AT_EPOCH":3719,"BSTAR":0.00016019502,"MEAN_MOTION_DOT":4.148e-5,"MEAN_MOTION_DDOT":0},{"OBJECT_NAME":"STARLINK-32909","OBJECT_ID":"2025-024R","EPOCH":"2025-09-26T18:30:09.891648","MEAN_MOTION":15.2761896,"ECCENTRICITY":0.00011029,"INCLINATION":42.9983,"RA_OF_ASC_NODE":171.3555,"ARG_OF_PERICENTER":130.3534,"MEAN_ANOMALY":229.7414,"EPHEMERIS_TYPE":0,"CLASSIFICATION_TYPE":"U","NORAD_CAT_ID":62894,"ELEMENT_SET_NO":999,"REV_AT_EPOCH":3719,"BSTAR":0.001898847,"MEAN_MOTION_DOT":0.00052425,"MEAN_MOTION_DDOT":0},{"OBJECT_NAME":"STARLINK-32901","OBJECT_ID":"2025-024S","EPOCH":"2025-09-26T02:07:53.379264","MEAN_MOTION":15.27556135,"ECCENTRICITY":0.00015067,"INCLINATION":43.0009,"RA_OF_ASC_NODE":174.8256,"ARG_OF_PERICENTER":292.6493,"MEAN_ANOMALY":67.4199,"EPHEMERIS_TYPE":0,"CLASSIFICATION_TYPE":"U","NORAD_CAT_ID":62895,"ELEMENT_SET_NO":999,"REV_AT_EPOCH":3709,"BSTAR":0.00091375295,"MEAN_MOTION_DOT":0.00024949,"MEAN_MOTION_DDOT":0},{"OBJECT_NAME":"STARLINK-32890","OBJECT_ID":"2025-024T","EPOCH":"2025-09-26T02:59:29.029056","MEAN_MOTION":15.27608562,"ECCENTRICITY":0.00014107,"INCLINATION":43.0001,"RA_OF_ASC_NODE":174.2449,"ARG_OF_PERICENTER":277.2135,"MEAN_ANOMALY":82.8556,"EPHEMERIS_TYPE":0,"CLASSIFICATION_TYPE":"U","NORAD_CAT_ID":62896,"ELEMENT_SET_NO":999,"REV_AT_EPOCH":3710,"BSTAR":0.001376261,"MEAN_MOTION_DOT":0.00037837,"MEAN_MOTION_DDOT":0},{"OBJECT_NAME":"STARLINK-32893","OBJECT_ID":"2025-024U","EPOCH":"2025-09-26T11:06:55.115424","MEAN_MOTION":15.27592322,"ECCENTRICITY":0.00017273,"INCLINATION":43.0015,"RA_OF_ASC_NODE":172.4841,"ARG_OF_PERICENTER":266.5827,"MEAN_ANOMALY":93.4827,"EPHEMERIS_TYPE":0,"CLASSIFICATION_TYPE":"U","NORAD_CAT_ID":62897,"ELEMENT_SET_NO":999,"REV_AT_EPOCH":3715,"BSTAR":0.0020458494,"MEAN_MOTION_DOT":0.00056489,"MEAN_MOTION_DDOT":0},{"OBJECT_NAME":"STARLINK-32902","OBJECT_ID":"2025-024V","EPOCH":"2025-09-26T11:01:22.374336","MEAN_MOTION":15.27604987,"ECCENTRICITY":0.00020666,"INCLINATION":42.9989,"RA_OF_ASC_NODE":172.4505,"ARG_OF_PERICENTER":312.6166,"MEAN_ANOMALY":47.4511,"EPHEMERIS_TYPE":0,"CLASSIFICATION_TYPE":"U","NORAD_CAT_ID":62898,"ELEMENT_SET_NO":999,"REV_AT_EPOCH":3715,"BSTAR":0.0014083704,"MEAN_MOTION_DOT":0.00038727,"MEAN_MOTION_DDOT":0},{"OBJECT_NAME":"STARLINK-32661","OBJECT_ID":"2025-024W","EPOCH":"2025-09-26T17:54:58.831200","MEAN_MOTION":15.27618579,"ECCENTRICITY":3.499e-5,"INCLINATION":42.9953,"RA_OF_ASC_NODE":171.1662,"ARG_OF_PERICENTER":241.6968,"MEAN_ANOMALY":118.3849,"EPHEMERIS_TYPE":0,"CLASSIFICATION_TYPE":"U","NORAD_CAT_ID":62899,"ELEMENT_SET_NO":999,"REV_AT_EPOCH":3719,"BSTAR":0.0018195705,"MEAN_MOTION_DOT":0.00050209,"MEAN_MOTION_DDOT":0},{"OBJECT_NAME":"STARLINK-11552 [DTC]","OBJECT_ID":"2025-027A","EPOCH":"2025-09-26T15:54:18.763488","MEAN_MOTION":15.70919647,"ECCENTRICITY":0.00011012,"INCLINATION":43.0005,"RA_OF_ASC_NODE":256.4834,"ARG_OF_PERICENTER":23.7058,"MEAN_ANOMALY":336.386,"EPHEMERIS_TYPE":0,"CLASSIFICATION_TYPE":"U","NORAD_CAT_ID":62907,"ELEMENT_SET_NO":999,"REV_AT_EPOCH":3739,"BSTAR":0.0025496851,"MEAN_MOTION_DOT":0.00341671,"MEAN_MOTION_DDOT":0},{"OBJECT_NAME":"STARLINK-11561 [DTC]","OBJECT_ID":"2025-027B","EPOCH":"2025-09-26T10:41:23.347104","MEAN_MOTION":15.70902414,"ECCENTRICITY":0.00021231,"INCLINATION":43.0009,"RA_OF_ASC_NODE":257.4186,"ARG_OF_PERICENTER":270.069,"MEAN_ANOMALY":89.9935,"EPHEMERIS_TYPE":0,"CLASSIFICATION_TYPE":"U","NORAD_CAT_ID":62908,"ELEMENT_SET_NO":999,"REV_AT_EPOCH":3732,"BSTAR":0.0024150417,"MEAN_MOTION_DOT":0.00322613,"MEAN_MOTION_DDOT":0}]
